{"type": "FeatureCollection", "features": [ {"type": "Feature", "properties": {"norad_id": 29940, "name": "FENGYUN 1C DEB", "group": "fengyun-1c-debris", "lat": -67.36479252003048, "lon": 30.361907588878417, "alt_km": 872.0561105246134, "timestamp": "2025-12-25T16:53:14.935951+00:00", "meta": {"OBJECT_NAME": "FENGYUN 1C DEB", "OBJECT_ID": "1999-025JN", "EPOCH": "2025-12-25T00:32:37.334976", "MEAN_MOTION": 14.1885145, "ECCENTRICITY": 0.00745935, "INCLINATION": 98.6214, "RA_OF_ASC_NODE": 8.3635, "ARG_OF_PERICENTER": 64.7871, "MEAN_ANOMALY": 350.4581, "EPHEMERIS_TYPE": 0, "CLASSIFICATION_TYPE": "U", "NORAD_CAT_ID": 29940, "ELEMENT_SET_NO": 999, "REV_AT_EPOCH": 97662, "BSTAR": 0.00058812572, "MEAN_MOTION_DOT": 1.216e-05, "MEAN_MOTION_DDOT": 0}, "tle": {"line1": "1 29940U 99025JN  25359.02265434  .00001216  00000+0  58813-3 0  9996", "line2": "2 29940  98.6214   8.3635 0074593  64.7871 350.4581 14.18851450976625"}}, "geometry": {"type": "Point", "coordinates": [30.361907588878417, -67.36479252003048]}}, {"type": "Feature", "properties": {"norad_id": 29942, "name": "FENGYUN 1C DEB", "group": "fengyun-1c-debris", "lat": -25.84726328753822, "lon": 69.67130603467326, "alt_km": 799.6070494739724, "timestamp": "2025-12-25T16:53:14.935961+00:00", "meta": {"OBJECT_NAME": "FENGYUN 1C DEB", "OBJECT_ID": "1999-025JQ", "EPOCH": "2025-12-25T03:34:47.785152", "MEAN_MOTION": 14.30455221, "ECCENTRICITY": 0.00493001, "INCLINATION": 98.636, "RA_OF_ASC_NODE": 64.8988, "ARG_OF_PERICENTER": 239.13, "MEAN_ANOMALY": 120.5028, "EPHEMERIS_TYPE": 0, "CLASSIFICATION_TYPE": "U", "NORAD_CAT_ID": 29942, "ELEMENT_SET_NO": 999, "REV_AT_EPOCH": 98046, "BSTAR": 0.00067240101, "MEAN_MOTION_DOT": 1.729e-05, "MEAN_MOTION_DDOT": 0}, "tle": {"line1": "1 29942U 99025JQ  25359.14916418  .00001729  00000+0  67240-3 0  9999", "line2": "2 29942  98.6360  64.8988 0049300 239.1300 120.5028 14.30455221980469"}}, "geometry": {"type": "Point", "coordinates": [69.67130603467326, -25.84726328753822]}}, {"type": "Feature", "properties": {"norad_id": 29943, "name": "FENGYUN 1C DEB", "group": "fengyun-1c-debris", "lat": 34.32490422638678, "lon": 1.0437508301047183, "alt_km": 881.4154774231911, "timestamp": "2025-12-25T16:53:14.935971+00:00", "meta": {"OBJECT_NAME": "FENGYUN 1C DEB", "OBJECT_ID": "1999-025JR", "EPOCH": "2025-12-25T06:48:50.156640", "MEAN_MOTION": 14.09673453, "ECCENTRICITY": 0.00354022, "INCLINATION": 98.7269, "RA_OF_ASC_NODE": 6.6569, "ARG_OF_PERICENTER": 191.046, "MEAN_ANOMALY": 235.127, "EPHEMERIS_TYPE": 0, "CLASSIFICATION_TYPE": "U", "NORAD_CAT_ID": 29943, "ELEMENT_SET_NO": 999, "REV_AT_EPOCH": 97483, "BSTAR": 5.36797e-07, "MEAN_MOTION_DOT": -4.2e-07, "MEAN_MOTION_DDOT": 0}, "tle": {"line1": "1 29943U 99025JR  25359.28391385 -.00000042  00000+0  53680-6 0  9999", "line2": "2 29943  98.7269   6.6569 0035402 191.0460 235.1270 14.09673453974830"}}, "geometry": {"type": "Point", "coordinates": [1.0437508301047183, 34.32490422638678]}}, {"type": "Feature", "properties": {"norad_id": 29944, "name": "FENGYUN 1C DEB", "group": "fengyun-1c-debris", "lat": -57.47448898019512, "lon": 101.1266702648603, "alt_km": 533.3753302842688, "timestamp": "2025-12-25T16:53:14.935981+00:00", "meta": {"OBJECT_NAME": "FENGYUN 1C DEB", "OBJECT_ID": "1999-025JS", "EPOCH": "2025-12-25T01:17:42.834336", "MEAN_MOTION": 14.87700362, "ECCENTRICITY": 0.01665065, "INCLINATION": 99.0052, "RA_OF_ASC_NODE": 294.7893, "ARG_OF_PERICENTER": 192.5545, "MEAN_ANOMALY": 167.1498, "EPHEMERIS_TYPE": 0, "CLASSIFICATION_TYPE": "U", "NORAD_CAT_ID": 29944, "ELEMENT_SET_NO": 999, "REV_AT_EPOCH": 637, "BSTAR": 0.00076018316, "MEAN_MOTION_DOT": 8.878e-05, "MEAN_MOTION_DDOT": 0}, "tle": {"line1": "1 29944U 99025JS  25359.05396799  .00008878  00000+0  76018-3 0  9990", "line2": "2 29944  99.0052 294.7893 0166506 192.5545 167.1498 14.87700362  6372"}}, "geometry": {"type": "Point", "coordinates": [101.1266702648603, -57.47448898019512]}}, {"type": "Feature", "properties": {"norad_id": 29945, "name": "FENGYUN 1C DEB", "group": "fengyun-1c-debris", "lat": 50.65484326110737, "lon": 12.075076443184221, "alt_km": 868.1522119581805, "timestamp": "2025-12-25T16:53:14.935991+00:00", "meta": {"OBJECT_NAME": "FENGYUN 1C DEB", "OBJECT_ID": "1999-025JT", "EPOCH": "2025-12-25T01:31:14.134656", "MEAN_MOTION": 14.05578962, "ECCENTRICITY": 0.00303554, "INCLINATION": 98.7911, "RA_OF_ASC_NODE": 22.3345, "ARG_OF_PERICENTER": 327.5616, "MEAN_ANOMALY": 85.5427, "EPHEMERIS_TYPE": 0, "CLASSIFICATION_TYPE": "U", "NORAD_CAT_ID": 29945, "ELEMENT_SET_NO": 999, "REV_AT_EPOCH": 97151, "BSTAR": 0.00010984396, "MEAN_MOTION_DOT": 1.36e-06, "MEAN_MOTION_DDOT": 0}, "tle": {"line1": "1 29945U 99025JT  25359.06335804  .00000136  00000+0  10984-3 0  9991", "line2": "2 29945  98.7911  22.3345 0030355 327.5616  85.5427 14.05578962971512"}}, "geometry": {"type": "Point", "coordinates": [12.075076443184221, 50.65484326110737]}}, {"type": "Feature", "properties": {"norad_id": 29946, "name": "FENGYUN 1C DEB", "group": "fengyun-1c-debris", "lat": -16.960385703871655, "lon": 168.89369010431218, "alt_km": 889.3154489144144, "timestamp": "2025-12-25T16:53:14.936001+00:00", "meta": {"OBJECT_NAME": "FENGYUN 1C DEB", "OBJECT_ID": "1999-025JU", "EPOCH": "2025-12-25T06:02:02.058144", "MEAN_MOTION": 14.08266059, "ECCENTRICITY": 0.00801411, "INCLINATION": 98.7808, "RA_OF_ASC_NODE": 351.1554, "ARG_OF_PERICENTER": 308.0547, "MEAN_ANOMALY": 118.4308, "EPHEMERIS_TYPE": 0, "CLASSIFICATION_TYPE": "U", "NORAD_CAT_ID": 29946, "ELEMENT_SET_NO": 999, "REV_AT_EPOCH": 97223, "BSTAR": 0.00019859394, "MEAN_MOTION_DOT": 3.06e-06, "MEAN_MOTION_DDOT": 0}, "tle": {"line1": "1 29946U 99025JU  25359.25141271  .00000306  00000+0  19859-3 0  9995", "line2": "2 29946  98.7808 351.1554 0080141 308.0547 118.4308 14.08266059972236"}}, "geometry": {"type": "Point", "coordinates": [168.89369010431218, -16.960385703871655]}}, {"type": "Feature", "properties": {"norad_id": 29947, "name": "FENGYUN 1C DEB", "group": "fengyun-1c-debris", "lat": -62.66300258788637, "lon": 47.392032062048, "alt_km": 915.849893069364, "timestamp": "2025-12-25T16:53:14.936011+00:00", "meta": {"OBJECT_NAME": "FENGYUN 1C DEB", "OBJECT_ID": "1999-025JV", "EPOCH": "2025-12-25T00:21:16.082208", "MEAN_MOTION": 14.03082563, "ECCENTRICITY": 0.00410693, "INCLINATION": 98.8368, "RA_OF_ASC_NODE": 29.2103, "ARG_OF_PERICENTER": 87.062, "MEAN_ANOMALY": 331.5523, "EPHEMERIS_TYPE": 0, "CLASSIFICATION_TYPE": "U", "NORAD_CAT_ID": 29947, "ELEMENT_SET_NO": 999, "REV_AT_EPOCH": 96922, "BSTAR": 0.00021113512, "MEAN_MOTION_DOT": 2.88e-06, "MEAN_MOTION_DDOT": 0}, "tle": {"line1": "1 29947U 99025JV  25359.01476947  .00000288  00000+0  21114-3 0  9997", "line2": "2 29947  98.8368  29.2103 0041069  87.0620 331.5523 14.03082563969227"}}, "geometry": {"type": "Point", "coordinates": [47.392032062048, -62.66300258788637]}}, {"type": "Feature", "properties": {"norad_id": 29948, "name": "FENGYUN 1C DEB", "group": "fengyun-1c-debris", "lat": -50.32797951560643, "lon": -3.6511918177317733, "alt_km": 901.6775017778218, "timestamp": "2025-12-25T16:53:14.936076+00:00", "meta": {"OBJECT_NAME": "FENGYUN 1C DEB", "OBJECT_ID": "1999-025JW", "EPOCH": "2025-12-24T18:04:10.771680", "MEAN_MOTION": 14.06197581, "ECCENTRICITY": 0.00841542, "INCLINATION": 98.8252, "RA_OF_ASC_NODE": 344.6261, "ARG_OF_PERICENTER": 199.5918, "MEAN_ANOMALY": 338.1397, "EPHEMERIS_TYPE": 0, "CLASSIFICATION_TYPE": "U", "NORAD_CAT_ID": 29948, "ELEMENT_SET_NO": 999, "REV_AT_EPOCH": 97145, "BSTAR": -2.2148702e-05, "MEAN_MOTION_DOT": -8.1e-07, "MEAN_MOTION_DDOT": 0}, "tle": {"line1": "1 29948U 99025JW  25358.75290245 -.00000081  00000+0 -22149-4 0  9996", "line2": "2 29948  98.8252 344.6261 0084154 199.5918 338.1397 14.06197581971450"}}, "geometry": {"type": "Point", "coordinates": [-3.6511918177317733, -50.32797951560643]}}, {"type": "Feature", "properties": {"norad_id": 29949, "name": "FENGYUN 1C DEB", "group": "fengyun-1c-debris", "lat": -67.6848114711339, "lon": 37.052486400298044, "alt_km": 862.0944616915494, "timestamp": "2025-12-25T16:53:14.936090+00:00", "meta": {"OBJECT_NAME": "FENGYUN 1C DEB", "OBJECT_ID": "1999-025JX", "EPOCH": "2025-12-25T07:18:05.083200", "MEAN_MOTION": 14.06828234, "ECCENTRICITY": 0.00230418, "INCLINATION": 98.7616, "RA_OF_ASC_NODE": 14.5955, "ARG_OF_PERICENTER": 268.7021, "MEAN_ANOMALY": 160.0729, "EPHEMERIS_TYPE": 0, "CLASSIFICATION_TYPE": "U", "NORAD_CAT_ID": 29949, "ELEMENT_SET_NO": 999, "REV_AT_EPOCH": 97284, "BSTAR": -3.7674718e-05, "MEAN_MOTION_DOT": -1.06e-06, "MEAN_MOTION_DDOT": 0}, "tle": {"line1": "1 29949U 99025JX  25359.30422550 -.00000106  00000+0 -37675-4 0  9993", "line2": "2 29949  98.7616  14.5955 0023041 268.7021 160.0729 14.06828234972840"}}, "geometry": {"type": "Point", "coordinates": [37.052486400298044, -67.6848114711339]}}, {"type": "Feature", "properties": {"norad_id": 29950, "name": "FENGYUN 1C DEB", "group": "fengyun-1c-debris", "lat": -68.25472490817948, "lon": 53.102503431185305, "alt_km": 863.4351119623916, "timestamp": "2025-12-25T16:53:14.936100+00:00", "meta": {"OBJECT_NAME": "FENGYUN 1C DEB", "OBJECT_ID": "1999-025JY", "EPOCH": "2025-12-25T02:11:47.622624", "MEAN_MOTION": 14.10339655, "ECCENTRICITY": 0.00327992, "INCLINATION": 98.7396, "RA_OF_ASC_NODE": 29.8229, "ARG_OF_PERICENTER": 206.421, "MEAN_ANOMALY": 217.0915, "EPHEMERIS_TYPE": 0, "CLASSIFICATION_TYPE": "U", "NORAD_CAT_ID": 29950, "ELEMENT_SET_NO": 999, "REV_AT_EPOCH": 97465, "BSTAR": 0.0001345631, "MEAN_MOTION_DOT": 1.97e-06, "MEAN_MOTION_DDOT": 0}, "tle": {"line1": "1 29950U 99025JY  25359.09152341  .00000197  00000+0  13456-3 0  9997", "line2": "2 29950  98.7396  29.8229 0032799 206.4210 217.0915 14.10339655974659"}}, "geometry": {"type": "Point", "coordinates": [53.102503431185305, -68.25472490817948]}}]}